STARLINK-3750           
1 52311U 22041BC  22123.91667824 -.00007983  00000+0 -52442-4 0  9993
2 52311  53.2149 314.2416 0001463  53.8658  82.7812 15.73230815  2586
STARLINK-3752           
1 52312U 22041BD  22123.91667824  .00063878  00000+0  45581-3 0  9992
2 52312  53.2149 314.2378 0001412  57.6191  80.1481 15.73214444  2586
STARLINK-3749           
1 52313U 22041BE  22123.91667824 -.00009172  00000+0 -60917-4 0  9993
2 52313  53.2151 314.2374 0001099  55.0849  83.2932 15.73232876  2583
FALCON 9 DEB            
1 52314U 22041BF  22123.81615812  .00241941  33042-4  71032-3 0  9999
2 52314  53.2078 313.8329 0013935 316.9636  43.0301 15.92130590  1935
FALCON 9 DEB            
1 52315U 22041BG  22123.81355927  .00258447  36297-4  74380-3 0  9991
2 52315  53.2078 313.8166 0014360 325.5323  34.4773 15.92483706  1934
FALCON 9 DEB            
1 52316U 22041BH  22123.80488986  .00254913  36055-4  68655-3 0  9997
2 52316  53.2083 313.7640 0009968 317.4891  42.5365 15.93841710  1936
FALCON 9 DEB            
1 52317U 22041BJ  22123.80168368  .00292712  44424-4  76038-3 0  9999
2 52317  53.2095 313.7448 0010079 334.6585  25.3949 15.94485292  1939
DRAGON FREEDOM          
1 52318U 22042A   22123.52090565  .00011040  00000+0  20165-3 0  9993
2 52318  51.6443 197.8013 0006492  59.4449  68.9888 15.49916071338250
AXIOM-1 DEB             
1 52319U 22037B   22124.21673602  .00896932  11264-4  10327-2 0  9992
2 52319  51.8858 191.4030 0092114 199.3537 160.4187 15.99958114  1368
2022-043A               
1 52320U 22043A   22123.94691269  .00007893  00000+0  33180-3 0  9993
2 52320  97.4737 199.5957 0011802 257.4022 102.5892 15.23629907   731
2022-043B               
1 52321U 22043B   22123.81400972  .00031085  00000+0  12703-2 0  9996
2 52321  97.4735 199.4674 0012055 268.0580  91.9466 15.24246281   710
2022-043C               
1 52322U 22043C   22123.94462465  .00008303  00000+0  34129-3 0  9990
2 52322  97.4736 199.5992 0012538 272.8644  87.1154 15.24364167   733
2022-043D               
1 52323U 22043D   22124.20636391  .00019410  00000+0  35848-3 0  9992
2 52323  97.5656 200.1799 0090100   7.4241 352.8312 15.44657851   786
2022-043E               
1 52324U 22043E   22123.93896781  .00053816  00000+0  20471-2 0  9996
2 52324  97.4645 199.6030 0018181 287.6634  72.2628 15.26423252   735
2022-043F               
1 52325U 22043F   22123.80524055  .00033390  00000+0  20144-2 0  9997
2 52325  97.2235 199.2351 0112463 198.7562 160.9446 15.05422644   690
2022-043G               
1 52326U 22043G   22124.20113923  .00020736  00000+0  18578-2 0  9999
2 52326  97.2954 199.4972 0160129 147.0577 214.0740 14.86440251   741
2022-043H               
1 52327U 22043H   22124.20614349  .00027693  00000+0  16675-2 0  9993
2 52327  97.7116 199.8114 0120723 199.5910 160.0639 15.04775168   766
2022-043J               
1 52328U 22043J   22123.79924013  .00021667  00000+0  19618-2 0  9994
2 52328  97.7308 199.2781 0162650 149.3272 211.7497 14.85767241   670
COSMOS 2555             
1 52330U 22044A   22124.04054574  .00591881  15737-3  11561-2 0  9999
2 52330  96.4411 214.3142 0011037 233.6585 251.8306 16.00118340   651
2022-046A               
1 52388U 22046A   22124.12059355 -.00005378  00000+0 -33384-3 0  9999
2 52388  97.5415 212.1713 0012397 270.8695 206.2954 15.09244916   600
2022-046B               
1 52389U 22046B   22124.24687544  .00004708  00000+0  29720-3 0  9993
2 52389  97.5416 212.2957 0011428 277.0229 169.1581 15.09516194   613
2022-046C               
1 52390U 22046C   22124.18026580  .00004532  00000+0  28572-3 0  9994
2 52390  97.5352 212.2277 0012407 275.9025 169.3405 15.09570135   609
2022-046D               
1 52391U 22046D   22124.24099147  .00004621  00000+0  28995-3 0  9999
2 52391  97.5477 212.2945 0012882 278.8392 138.5521 15.09730292   616
2022-046E               
1 52392U 22046E   22124.11913292  .00004527  00000+0  28326-3 0  9995
2 52392  97.5402 212.1727 0013940 278.6960 198.2863 15.09831932   599
2022-046F               
1 52393U 22046F   22123.90499229  .00753117  22703-5  49493-3 0  9995
2 52393  97.2944 212.0800 0306831 309.2823  48.1527 15.63280090   595
